ORBCOMM FM24 [-]        
1 25478U 98053D   24089.65760375  .00003010  00000+0  10864-2 0  9997
2 25478  45.0070 212.4185 0002381 194.9619 165.1158 14.35440726333518
ORBCOMM FM25 [-]        
1 25479U 98053E   24089.62332298  .00002738  00000+0  99313-3 0  9997
2 25479  45.0060 210.8215 0004938 191.6133 168.4601 14.35424568333806
ORBCOMM FM26 [-]        
1 25480U 98053F   24089.75331879  .00002496  00000+0  91903-3 0  9995
2 25480  45.0057 204.1552 0007212 207.2206 152.8264 14.34899286333766
ORBCOMM FM27 [+]        
1 25481U 98053G   24089.61093652  .00002820  00000+0  10218-2 0  9995
2 25481  45.0045 211.1444 0001473 233.0465 127.0248 14.35402645333732
ORBCOMM FM28 [-]        
1 25482U 98053H   24089.88867281  .00002111  00000+0  77034-3 0  9995
2 25482  45.0041 148.4416 0005890 240.8732 119.1527 14.35850419334447
ORBCOMM FM30 [-]        
1 25980U 99065A   24089.78893875  .00002674  00000+0  97837-3 0  9996
2 25980  45.0329  29.4743 0007447 306.5634  53.4528 14.35040289270560
ORBCOMM FM31 [-]        
1 25981U 99065B   24089.89382069  .00002006  00000+0  74623-3 0  9994
2 25981  45.0242  22.7021 0004555 327.6167  32.4400 14.35046063270137
ORBCOMM FM32 [+]        
1 25982U 99065C   24089.91513032  .00002203  00000+0  83153-3 0  9991
2 25982  45.0169  36.1055 0007117 328.5064  31.5356 14.34015878270774
